SAAC 130100Z 00000KT 8000 TSRA BKN004 OVC040 FEW040CB 15/15 Q1014 =
SAAG 130100Z 16010G20KT 6000 RA BKN006 OVC035 13/13 Q1014 =
SAAJ 130100Z 14017G25KT CAVOK 11/05 Q1021 =
SAAP 130100Z 18014KT 4500 DZ OVC004 12/11 Q1016 =
SAAR 130100Z 16013KT 4000 BKN008 OVC012 11/10 Q1018 =
SAAV 120900Z 16006KT 7000 TSRA FEW007 FEW050CB OVC050 13/11 Q1019 =
SABE 130100Z 16022G33KT 8000 BKN010 OVC050 12/11 Q1019 =
SACE 121400Z 18010KT 3000 DZ BKN007 OVC010 10/09 Q1023 =
SACO 130100Z 20008KT 9999 FEW030 BKN100 10/07 Q1025 =
SADF 130100Z 14010KT 7000 -RA BKN010 OVC050 12/11 Q1020 =
SADM 122200Z 14010G21KT 6000 RA BKN008 OVC050 12/10 Q1020 =
SAEZ 130100Z 15018KT 6000 -DZ BKN008 BKN014 11/09 Q1021 =
SAME 130100Z 18012KT 9999 SCT030 07/01 Q1024 =
SAMM 130100Z 09004KT 3000 SN OVC015 01/M00 Q1026 =
SAMR 122100Z 18009KT 1800 RA BKN005 OVC020 03/02 Q1024 =
SANC 130100Z 00000KT 3000 -DZ BKN006 BKN025 10/09 Q1022 =
SANE 130100Z 18009KT 9999 SCT025 BKN100 14/10 Q1021 =
SANL 122200Z 27002KT 2000 DZ OVC005 10/10 Q1021 =
SANT 130100Z 14006KT 2000 -RABR FEW003 SCT008 OVC040 11/11 Q1022 =
SANU 130100Z 16006KT 9999 BKN020 08/06 Q1026 =
SAOC 130100Z 14008KT 6000 DZ BROVC008 10/08 Q1023 RMK WIND ESTIMATED =
SAOR 130100Z 09010KT 3000 DZ OVC005 09/09 Q1023 =
SAOS 130000Z 00000KT 9999 OVC005 09/08 Q1021 =
SAOU 130100Z 32002KT 2500 RABR OVC010 07/07 Q1022 =
SARC 130100Z 23007KT 9999 OVC005 17/16 Q1014 =
SARE 122200Z 23005KT 5000 BR OVC003 17/17 Q1012 =
SARF 130100Z 25004KT CAVOK 19/18 Q1013 =
SARI 130100Z 05006KT CAVOK 20/17 Q1018 =
SARL 130100Z 00000KT 9999 BKN015 FEW045CB 20/19 Q1012 =
SARP 130100Z 05006KT CAVOK 25/17 Q1014 =
SASA 130100Z 02006KT 8000 -DZ SCT008 OVC017 10/07 Q1019 =
SASJ 130100Z 18008KT 9999 SCT022 OVC100 12/09 Q1019 =
SATR 130100Z 20008KT 3000 TSRABR SCT004 OVC030 FEW040CB 14/14 Q1014 =
SAVC 130100Z VRB02KT CAVOK M01/M04 Q1035 =
SAVT 130100Z 00000KT 9999 SCT035 BKN100 04/02 Q1036 =
SAVV 130100Z 09006KT 9999 FEW025 06/04 Q1033 =
SAVY 130100Z 09008KT 9999 FEW020 06/04 Q1034 =
SAWC 130100Z 05002KT CAVOK M03/M04 Q1028 =
SAWE 130000Z 29016KT CAVOK 03/01 Q1022 =
SAWG 130100Z 32003KT CAVOK 01/M03 Q1026 =
SAWH 130100Z 23003KT 9999 FEW040 BKN100 04/M01 Q1017 =
SAWP 130000Z 00000KT CAVOK 02/M03 Q1030 =
SAWU 130000Z 29010KT CAVOK 01/M02 Q1028 =
SAZA 130100Z 14014KT CAVOK 08/06 Q1027 =
SAZB 122200Z 11008KT CAVOK 08/04 Q1029 =
SAZG 130100Z 18010KT 9999 FEW025 SCT100 10/05 Q1025 =
SAZM 130100Z 14010KT 8000 OVC020 10/05 Q1029 =
SAZN 130100Z 00000KT CAVOK 06/03 Q1030 =
SAZR 122100Z 11011KT 9999 SCT040 BKN100 OVC200 13/M01 Q1025 =
SAZS 130100Z 14005KT 9999 BKN030 SCT100 02/M03 Q1029 =
SAZT 130100Z 14010KT CAVOK 08/03 Q1028 =
SAZY 130000Z 09015KT 9999 OVC045 05/M02 Q1025 =
SUAA 122100Z 12019G29KT 3000 RA BKN007 OVC060 12/11 Q1019 =
SUCA 122200Z 13020G30KT 5000 +RABR BKN002 OVC010 13/12 Q1017 =
SUDU 122100Z 12012KT 5000 RA BKN004 OVC070 14/13 Q1015 =
SULS 130100Z 11015KT 8000 RA BKN007 OVC060 14/13 Q1020 =
SUMU 130100Z 11014G25KT 3000 RA BR BKN005 OVC070 14/13 Q1019 WS RWY 06 10KT NOSIG =
SUSO 130000Z 18006KT 8000 RA BKN008 OVC067 15/15 1013 =
