SABE 122300Z 1300/1324 14020G30KT 5000 RADZ BKN010 OVC050 TX14/1318Z TN11/1310Z TEMPO 1306/1312 3000 TSRA BKN006 OVC030 FEW040CB TEMPO 1313/1317 16015KT 6000 RADZ SCT010 OVC030 BECMG 1321/1323 20010KT 8000 RADZ SCT010 BKN015 =
SAZB 122300Z 1300/1324 11010KT 9999 SCT040 BKN100 TX09/1318Z TN02/1311Z TEMPO 1308/1312 4000 BR =
SAZS 122300Z 1300/1324 05005KT 9999 BKN030 BKN100 TX04/1318Z TNM04/1310Z PROB30 TEMPO 1301/1312 09005KT 5000 SN BKN015 BKN025 BECMG 1313/1315 4000 SNRA BKN010 OVC015 =
SANC 122300Z 1300/1324 VRB02KT 5000 BR DZ BKN005 TX16/1318Z TN08/1311Z BECMG 1311/1313 18010KT 9999 BKN030 =
SAZY 122300Z 1300/1324 09015KT 9999 BKN040 TX06/1318Z TNM03/1310Z BECMG 1302/1304 4000 RASN BKN008 OVC040 BECMG 1314/1316 7000 RA SCT010 BKN018 =
SAVC 122300Z 1300/1324 05010KT 9999 FEW030 TX13/1318Z TN01/1312Z BECMG 1300/1303 34015KT =
SACO 122300Z 1300/1324 18010KT 9999 BKN015 TX16/1318Z TN06/1311Z PROB40 1306/1312 18005KT 3000 BR DZ OVC005 BECMG 1313/1315 18010KT 9999 BKN030 =
SARC 122300Z 1300/1324 23005KT 4000 DZBR OVC003 TX21/1318Z TN15/1310Z BECMG 1302/1304 BKN003 FEW050CB PROB30 1205/1209 TSRA BECMG 1311/1313 9999 BKN015 =
SAWC 122300Z 1300/1324 30010KT 9999 SCT090 TX07/1318Z TNM02/1312Z =
SAVE 122300Z 1300/1324 05010KT 9999 -SHRASN BKN015 SCT090 TX09/1318Z TNM02/1312Z BECMG 1306/1309 02010KT NSW SCT020 =
SAEZ 122300Z 1300/1324 14015G25KT 7000 DZ BKN020 OVC050 TX13/1315Z TN09/1324Z TEMPO 1310/1320 2000 RA BKN010 OVC030 BECMG 1321/1324 17010KT 5000 BR SCT030 =
SARF 122300Z 1300/1324 27005KT 9999 BKN020 TX26/1318Z TN17/1310Z PROB30 1305/1311 23005KT 3000 DZBR SCT015 OVC050 BECMG 1313/1315 CAVOK =
SARI 122300Z 1300/1324 02005KT CAVOK TX31/1318Z TN18/1310Z =
SASJ 122300Z 1300/1324 VRB02KT 9999 BKN010 TX16/1318Z TN10/1311Z BECMG 1303/1305 16005KT 3000 BR DZ OVC003 PROB40 1306/1312 0800 DZ FG OVC002 BECMG 1314/1316 05005KT 9999 BKN020 =
SANL 122300Z 1300/1324 VRB02KT 3000 BR DZ BKN005 TX15/1218Z TN08/1311Z BECMG 1309/1311 18010KT 9999 BKN030 =
SAZM 122300Z 1300/1324 14015KT 9999 SCT020 BKN100 TX12/1318Z TN06/1310Z BECMG 1304/1306 7000 BKN008 BKN100 BECMG 1310/1312 3000 RA BECMG 1320/1322 2000 RADZ BKN005 OVC030 =
SAME 122300Z 1300/1324 16005KT 8000 DZ OVC025 SCT070 TN05/1311Z TX09/1319Z BECMG 1315/1317 14005KT 9999 BKN030 SCT080 =
SAZN 122300Z 1300/1324 VRB03KT 8000 SCT040 BKN050 TX11/1318Z TN02/1310Z BECMG 1306/1307 14005KT TEMPO 1308/1312 2000 BR BECMG 1314/1316 07010KT =
SAAP 122300Z 1300/1324 16020KT 5000 RADZ BKN004 OVC040 TX11/1318Z TN09/1309Z BECMG 1306/1308 20015KT 0800 RADZ BKN002 OVC020 BECMG 1313/1315 8000 BKN008 BKN015 =
SARP 122300Z 1300/1324 02010KT 8000 NSC TX30/1318Z TN19/1310Z =
SARE 122300Z 1300/1324 23005KT 4000 DZBR OVC003 TX21/1318Z TN15/1310Z BECMG 1302/1304 BKN003 FEW050CB PROB30 1205/1209 TSRA BECMG 1311/1313 9999 BKN015 =
SAWG 122300Z 1300/1324 29010KT 9999 FEW090 TX08/1318Z TNM02/1312Z =
SAWE 122300Z 1300/1324 29025G35KT 9999 FEW090 TX07/1318Z TNM00/1312Z BECMG 1315/1318 32025G35KT -RA BKN015 OVC060 =
SAAR 122300Z 1300/1324 14015G25KT 7000 RADZ SCT006 OVC008 TX14/1318Z TN09/1310Z TEMPO 1303/1313 18015KT 0800 RADZ BKN005 OVC010 BECMG 1316/1318 20010KT 9999 BKN012 OVC030 BECMG 1322/1323 6000 BKN008 BKN020 =
SASA 122300Z 1300/1324 07005KT 9999 BKN007 TX15/1318Z TN07/1311Z BECMG 1303/1305 09005KT 3000 BR DZ OVC003 PROB40 1306/1312 0800 DZ FG OVC002 BECMG 1314/1316 05005KT 9999 BKN020 =
SADF 122300Z 1300/1324 14020G30KT 5000 RA BKN010 OVC050 TX14/1318Z TN11/1310Z TEMPO 1306/1312 3000 TSRA BKN006 OVC030 FEW040CB TEMPO 1313/1317 16015KT 6000 RADZ SCT010 OVC030 BECMG 1321/1323 20010KT 8000 RADZ SCT010 BKN015 =
SANU 122300Z 1300/1324 18010KT 9999 BKN030 BKN070 TN03/1311Z TX08/1319Z BECMG 1302/1304 16005KT 8000 DZ OVC025 BECMG 1314/1316 16010KT 9999 BKN040 =
SAOU 122300Z 1300/1324 18005KT 2000 +DZ BKN010 OVC030 TN05/1309Z TX08/1319Z =
SAMR 122300Z 1300/1324 18010KT 1500 +DZ BKN005 OVC020 TN01/1311Z TX05/1319Z =
SAZR 122300Z 1300/1324 14010KT 9999 SCT040 BKN100 TX11/1318Z TN04/1310Z BECMG 1310/1312 7000 RADZ SCT020 BKN050 TEMPO 1316/1320 6000 RA SCT008 BKN025 BECMG 1321/1323 09005KT 7000 NSC =
SANE 122300Z 1300/1324 16005KT 9999 BKN15 TX19/1218Z TN08/1311Z BECMG 1306/1308 3000 BR BKN007 PROB40 1309/1312 1000 BR BCFG OVC005 BECMG 1313/1315 18010KT 9999 BKN030 =
SAAV 122300Z 1300/1324 16020KT 5000 RADZ SCT006 OVC040 TX12/1318Z TN08/1309Z BECMG 1306/1308 20015KT 1500 RADZ BKN002 OVC020 BECMG 1313/1315 8000 BKN008 BKN015 =
SANR 122300Z 1300/1324 18005KT 5000 BR DZ OVC010 TX17/1218Z TN09/1311Z BECMG 1306/1308 1000 BR FG BKN003 BECMG 1313/1315 18010KT 9999 BKN030 =
SAVT 122300Z 1300/1324 07010KT 9999 SCT090 TX12/1318Z TN01/1312Z =
SANT 122300Z 1300/1324 18005KT 1000 DZ FG OVC002 TX15/1318Z TN09/1311Z BECMG 1312/1315 34005KT 9999 BKN020 =
SAWH 122300Z 1300/1324 27025G40KT 9999 SCT020 SCT090 TX06/1318Z TNM01/1312Z =
SAVV 122300Z 1300/1324 09010KT 9999 SCT090 TX12/1318Z TN03/1312Z =
SUCA 122320Z 1300/1324 12015G25KT 5000 RA BKN007 OVC050 TX14/1318Z TN12/1310Z TEMPO 1300/1306 1500 DZBR OVC005 PROB40 TEMPO 1312/1316 TS BECMG 1319/1321 18012KT 9999 BKN010 OVC030 =
SULS 122320Z 1300/1324 12015G28KT 5000 RA BKN007 OVC050 TX14/1318Z TN12/1310Z TEMPO 1300/1306 1500 DZBR OVC005 BECMG 1319/1321 18012KT 9999 BKN010 OVC030 =
SUMU 122320Z 1300/1324 12015G25KT 5000 RA BKN007 OVC050 TX14/1318Z TN12/1310Z TEMPO 1300/1306 1500 DZBR OVC005 BECMG 1319/1321 18012KT 9999 BKN010 OVC030 =
